*******************************************************************************
 Revised: Sep 10, 2019              Portia / (Uranus)                       712

 SATELLITE PHYSICAL PROPERTIES:
  Radius (km)           = 55 +- 6           Density (g cm^-3)   =
  Mass (10^20 kg )      =                   Geometric Albedo    =   0.07 
                                            V(1,0)              =  +8.3

 SATELLITE ORBITAL DATA:
  Semi-major axis, a (km) =  66.097 (10^3)  Orbital period      =  0.513196 d
  Eccentricity, e         =   0.000         Rotational period   = 
  Inclination, i  (deg)   =   0.1
*******************************************************************************
 
 
*******************************************************************************
Ephemeris / WWW_USER Thu Jun 18 11:37:22 2020 Pasadena, USA      / Horizons
*******************************************************************************
Target body name: Portia (712)                    {source: ura115}
Center body name: Solar System Barycenter (0)     {source: DE431mx}
Center-site name: BODY CENTER
*******************************************************************************
Start time      : A.D. 2000-Jun-05 00:00:00.0000 TDB
Stop  time      : A.D. 2040-May-26 00:00:00.0000 TDB
Step-size       : 14400 minutes
*******************************************************************************
Center geodetic : 0.00000000,0.00000000,0.0000000 {E-lon(deg),Lat(deg),Alt(km)}
Center cylindric: 0.00000000,0.00000000,0.0000000 {E-lon(deg),Dxy(km),Dz(km)}
Center radii    : (undefined)                                                  
Output units    : AU-D
Output type     : GEOMETRIC cartesian states
Output format   : 3 (position, velocity, LT, range, range-rate)
Reference frame : Ecliptic of J2000.0
*******************************************************************************
JDTDB
   X     Y     Z
   VX    VY    VZ
   LT    RG    RR
*******************************************************************************
$$SOE
2465740.500000000 = A.D. 2038-Nov-13 00:00:00.0000 TDB 
 X =-7.994366526951411E+00 Y = 1.684672475197320E+01 Z = 1.657592327417223E-01
 VX=-6.806748758815613E-03 VY=-5.894267408073294E-04 VZ= 4.187808437382183E-03
 LT= 1.077021141035611E-01 RG= 1.864804298470021E+01 RR= 2.422769098158317E-03
2465750.500000000 = A.D. 2038-Nov-23 00:00:00.0000 TDB 
 X =-8.029513980738816E+00 Y = 1.682791313179950E+01 Z = 1.667368622848803E-01
 VX= 9.089556150069937E-06 VY=-3.195782720988510E-03 VZ=-3.790336517564230E-03
 LT= 1.076912812597073E-01 RG= 1.864616733593032E+01 RR=-2.921958522169954E-03
2465760.500000000 = A.D. 2038-Dec-03 00:00:00.0000 TDB 
 X =-8.065891259844685E+00 Y = 1.680913086279991E+01 Z = 1.664909692430072E-01
 VX=-7.493914230099557E-03 VY=-5.458384785486003E-04 VZ= 3.516607906863888E-03
 LT= 1.076841019696060E-01 RG= 1.864492428038287E+01 RR= 2.781213243549158E-03
2465770.500000000 = A.D. 2038-Dec-13 00:00:00.0000 TDB 
 X =-8.101075180101880E+00 Y = 1.679020435671169E+01 Z = 1.675737203727919E-01
 VX= 6.517292409872541E-04 VY=-3.248864904771912E-03 VZ=-3.059715372812292E-03
 LT= 1.076737648093360E-01 RG= 1.864313445656504E+01 RR=-3.236662873706449E-03
2465780.500000000 = A.D. 2038-Dec-23 00:00:00.0000 TDB 
 X =-8.137259464632990E+00 Y = 1.677122894283074E+01 Z = 1.672296307664781E-01
 VX=-8.056059054068714E-03 VY=-5.450331504173784E-04 VZ= 2.734108249540202E-03
 LT= 1.076661150021353E-01 RG= 1.864180993350723E+01 RR= 3.050701147269312E-03
2465790.500000000 = A.D. 2039-Jan-02 00:00:00.0000 TDB 
 X =-8.172496220501834E+00 Y = 1.675218850835993E+01 Z = 1.683955243018224E-01
 VX= 1.158546505582331E-03 VY=-3.258401907691383E-03 VZ=-2.229949818308567E-03
 LT= 1.076563234244694E-01 RG= 1.864011457438897E+01 RR=-3.456475186538691E-03
2465800.500000000 = A.D. 2039-Jan-12 00:00:00.0000 TDB 
 X =-8.208471596012075E+00 Y = 1.673302028500214E+01 Z = 1.679776746181606E-01
 VX=-8.474474560780709E-03 VY=-5.876394456859336E-04 VZ= 1.865292000851523E-03
 LT= 1.076481616752063E-01 RG= 1.863870141131083E+01 RR= 3.221406204550030E-03
2465810.500000000 = A.D. 2039-Jan-22 00:00:00.0000 TDB 
 X =-8.243774770253019E+00 Y = 1.671386588090910E+01 Z = 1.692019247098036E-01
 VX= 1.514095151653458E-03 VY=-3.224630918697091E-03 VZ=-1.327128466656240E-03
 LT= 1.076389542250550E-01 RG= 1.863710719073652E+01 RR=-3.573647997555053E-03
2465820.500000000 = A.D. 2039-Feb-01 00:00:00.0000 TDB 
 X =-8.279528709272519E+00 Y = 1.669450603972822E+01 Z = 1.687355902996513E-01
 VX=-8.735611823526307E-03 VY=-6.727737867606665E-04 VZ= 9.378907131993011E-04
 LT= 1.076302512609745E-01 RG= 1.863560031921761E+01 RR= 3.286901271404796E-03
2465830.500000000 = A.D. 2039-Feb-11 00:00:00.0000 TDB 
 X =-8.314905712456694E+00 Y = 1.667523603920454E+01 Z = 1.699916821272893E-01
 VX= 1.707084828774910E-03 VY=-3.149222141389974E-03 VZ=-3.810775334506614E-04
 LT= 1.076216432209058E-01 RG= 1.863410988328188E+01 RR=-3.583377600066381E-03
2465840.500000000 = A.D. 2039-Feb-21 00:00:00.0000 TDB 
 X =-8.350431092757718E+00 Y = 1.665568732322613E+01 Z = 1.695047312114457E-01
 VX=-8.830505720347964E-03 VY=-7.983429347768410E-04 VZ=-1.887276635640886E-05
 LT= 1.076123910695000E-01 RG= 1.863250792292529E+01 RR= 3.243706132338062E-03
2465850.500000000 = A.D. 2039-Mar-03 00:00:00.0000 TDB 
 X =-8.385886328246439E+00 Y = 1.663629916949667E+01 Z = 1.707641972296439E-01
 VX= 1.731481713185159E-03 VY=-3.034999801834021E-03 VZ= 5.783266761866739E-04
 LT= 1.076043855611762E-01 RG= 1.863112181212719E+01 RR=-3.484085213593224E-03
2465860.500000000 = A.D. 2039-Mar-13 00:00:00.0000 TDB 
 X =-8.421180577771930E+00 Y = 1.661656525011516E+01 Z = 1.702840185904827E-01
 VX=-8.756360474100255E-03 VY=-9.606432268358500E-04 VZ=-9.739133427143198E-04
 LT= 1.075945923890239E-01 RG= 1.862942617693216E+01 RR= 3.092444151030455E-03
2465870.500000000 = A.D. 2039-Mar-23 00:00:00.0000 TDB 
 X =-8.456712105932924E+00 Y = 1.659705515528536E+01 Z = 1.715194747759464E-01
 VX= 1.586915273496167E-03 VY=-2.886185253204966E-03 VZ= 1.520100083724321E-03
 LT= 1.075871700252278E-01 RG= 1.862814103447910E+01 RR=-3.277918851875341E-03
2465880.500000000 = A.D. 2039-Apr-02 00:00:00.0000 TDB 
 X =-8.491778155610795E+00 Y = 1.657714109074324E+01 Z = 1.710747120787119E-01
 VX=-8.514393288441401E-03 VY=-1.155153974459989E-03 VZ=-1.896589374033607E-03
 LT= 1.075768654412771E-01 RG= 1.862635685107610E+01 RR= 2.836235258467272E-03
2465890.500000000 = A.D. 2039-Apr-12 00:00:00.0000 TDB 
 X =-8.527379964858085E+00 Y = 1.655750433323758E+01 Z = 1.722584781429169E-01
 VX= 1.278726660857003E-03 VY=-2.708091425582022E-03 VZ= 2.414378244329519E-03
 LT= 1.075699912663563E-01 RG= 1.862516662458451E+01 RR=-2.970578874024138E-03
2465900.500000000 = A.D. 2039-Apr-22 00:00:00.0000 TDB 
 X =-8.562224503477889E+00 Y = 1.653741560999272E+01 Z = 1.718749393203558E-01
 VX=-8.112592237042833E-03 VY=-1.376053243702083E-03 VZ=-2.757562199624965E-03
 LT= 1.075592169940196E-01 RG= 1.862330111715843E+01 RR= 2.482455474439224E-03
2465910.500000000 = A.D. 2039-May-02 00:00:00.0000 TDB 
 X =-8.597884929137512E+00 Y = 1.651764656494672E+01 Z = 1.729816911431846E-01
 VX= 8.168335873240919E-04 VY=-2.506945193608536E-03 VZ= 3.231959789511109E-03
 LT= 1.075528362463170E-01 RG= 1.862219632494129E+01 RR=-2.570738979997269E-03
2465920.500000000 = A.D. 2039-May-12 00:00:00.0000 TDB 
 X =-8.632520670608614E+00 Y = 1.649738986248206E+01 Z = 1.726842270704934E-01
 VX=-7.563341746027912E-03 VY=-1.616768528481518E-03 VZ=-3.529025619175604E-03
 LT= 1.075416564986762E-01 RG= 1.862026061164262E+01 RR= 2.041262308895236E-03
2465930.500000000 = A.D. 2039-May-22 00:00:00.0000 TDB 
 X =-8.668225048232484E+00 Y = 1.647748246591941E+01 Z = 1.736902208552361E-01
 VX= 2.162160681827991E-04 VY=-2.289523261189736E-03 VZ= 3.947639083557297E-03
 LT= 1.075357036241160E-01 RG= 1.861922990336355E+01 RR=-2.089996354699468E-03
2465940.500000000 = A.D. 2039-Jun-01 00:00:00.0000 TDB 
 X =-8.702667566940519E+00 Y = 1.645706462163160E+01 Z = 1.735003047480553E-01
 VX=-6.884241483703987E-03 VY=-1.869973688498003E-03 VZ=-4.185965703071894E-03
 LT= 1.075241916481512E-01 RG= 1.861723666651376E+01 RR= 1.526043925563256E-03
2465950.500000000 = A.D. 2039-Jun-11 00:00:00.0000 TDB 
 X =-8.738395958063176E+00 Y = 1.643701229291730E+01 Z = 1.743863327725778E-01
 VX=-5.033119464855323E-04 VY=-2.063405276495796E-03 VZ= 4.538079931006641E-03
 LT= 1.075185836608416E-01 RG= 1.861626567361099E+01 RR=-1.543096784439504E-03
2465960.500000000 = A.D. 2039-Jun-21 00:00:00.0000 TDB 
 X =-8.772665377275446E+00 Y = 1.641644076183389E+01 Z = 1.743226708382032E-01
 VX=-6.096163458606485E-03 VY=-2.128184423418224E-03 VZ=-4.707395867877054E-03
 LT= 1.075068289190565E-01 RG= 1.861423040316243E+01 RR= 9.520556255086489E-04
2465970.500000000 = A.D. 2039-Jul-01 00:00:00.0000 TDB 
 X =-8.808395319231778E+00 Y = 1.639623664355885E+01 Z = 1.750715314825956E-01
 VX=-1.318788605763717E-03 VY=-1.836212900258607E-03 VZ= 4.984585650735310E-03
 LT= 1.075014735605387E-01 RG= 1.861330315157904E+01 RR=-9.465225312980158E-04
2465980.500000000 = A.D. 2039-Jul-11 00:00:00.0000 TDB 
 X =-8.842513784091194E+00 Y = 1.637551861186850E+01 Z = 1.751476992266772E-01
 VX=-5.225011421794377E-03 VY=-2.383428981026537E-03 VZ=-5.076744354387285E-03
 LT= 1.074895705464071E-01 RG= 1.861124220856950E+01 RR= 3.376007746682193E-04
2465990.500000000 = A.D. 2039-Jul-21 00:00:00.0000 TDB 
 X =-8.878219799030070E+00 Y = 1.635515600442679E+01 Z = 1.757480208184111E-01
 VX=-2.204034128876558E-03 VY=-1.615705077526727E-03 VZ= 5.272567811183114E-03
 LT= 1.074843671452156E-01 RG= 1.861034126758155E+01 RR=-3.186704486848262E-04
